STARLINK-1434           
1 45712U 20035BH  26068.24137979  .00054112  00000+0  20295-2 0  9995
2 45712  53.0547  22.1128 0005343  88.0400 272.1210 15.26724568319325
STARLINK-35888          
1 67190U 25303AD  26068.04268010  .00033517  00000+0  12226-2 0  9992
2 67190  42.9940 314.5842 0000700 284.7454  75.3320 15.27564498 12634
