[{"OBJECT_NAME":"STARLINK-1434","OBJECT_ID":"2020-035BH","EPOCH":"2026-03-09T05:47:35.213856","MEAN_MOTION":15.26724568,"ECCENTRICITY":0.00053438,"INCLINATION":53.0547,"RA_OF_ASC_NODE":22.1128,"ARG_OF_PERICENTER":88.04,"MEAN_ANOMALY":272.121,"EPHEMERIS_TYPE":0,"CLASSIFICATION_TYPE":"U","NORAD_CAT_ID":45712,"ELEMENT_SET_NO":999,"REV_AT_EPOCH":31932,"BSTAR":0.0020295208,"MEAN_MOTION_DOT":0.00054112,"MEAN_MOTION_DDOT":0},{"OBJECT_NAME":"STARLINK-35888","OBJECT_ID":"2025-303AD","EPOCH":"2026-03-09T01:01:27.560640","MEAN_MOTION":15.27564498,"ECCENTRICITY":7.004e-5,"INCLINATION":42.994,"RA_OF_ASC_NODE":314.5842,"ARG_OF_PERICENTER":284.7454,"MEAN_ANOMALY":75.332,"EPHEMERIS_TYPE":0,"CLASSIFICATION_TYPE":"U","NORAD_CAT_ID":67190,"ELEMENT_SET_NO":999,"REV_AT_EPOCH":1263,"BSTAR":0.0012225527,"MEAN_MOTION_DOT":0.00033517,"MEAN_MOTION_DDOT":0}]
